{
  "norad_id": 66855,
  "name": "STARLINK-36090",
  "history": [
    {
      "epoch": "2026-03-28T17:47:55.085856Z",
      "apogee_km": 483.7219399878477,
      "perigee_km": 482.25544298254954,
      "latitude_deg": -1.0424906781867378e-05,
      "longitude_deg": 142.35856465393195,
      "height_km": 482.8965039155872,
      "semi_major_axis_km": 6861.125691485198,
      "eccentricity": 0.00010687,
      "inclination_deg": 43.0003,
      "raan_deg": 235.4958,
      "arg_perigee_deg": 259.6772,
      "mean_anomaly_deg": 100.3959,
      "mean_motion_rev_day": 15.27600173
    }
  ]
}