{"fetched_at":"2026-03-29T16:36:15Z","count":15609,"tles":[{"name":"STARLINK-36090","line1":"1 66855U 25281H   26087.74160979  .00023858  00000+0  87316-3 0  9997","line2":"2 66855  43.0003 235.4958 0001068 259.6772 100.3959 15.27600173 19101","category":"Starlink"}]}